start=new Date('2022-03-15T00:00:00.000Z').valueOf();
sats=[{"MEAN_MOTION_DOT":"-0.00000916","RCS_SIZE":"LARGE","MEAN_MOTION":"15.06398008","ARG_OF_PERICENTER":"54.4267","TLE_LINE1":"1 46336U 20062M   22073.64004872 -.00000916  00000-0 -42629-4 0  9992","DECAY_DATE":null,"SEMIMAJOR_AXIS":"6925.355","INCLINATION":"53.0553","CLASSIFICATION_TYPE":"U","LAUNCH_DATE":"2020-09-03","EPOCH":"2022-03-14T15:21:40.209408","REV_AT_EPOCH":"8512","PERIOD":"95.592","TIME_SYSTEM":"UTC","RA_OF_ASC_NODE":"53.0898","SITE":"AFETR","MEAN_MOTION_DDOT":"0.0000000000000","OBJECT_ID":"2020-062M","REF_FRAME":"TEME","ECCENTRICITY":"0.00016690","COUNTRY_CODE":"US","NORAD_CAT_ID":"46336","APOAPSIS":"548.376","CENTER_NAME":"EARTH","MEAN_ANOMALY":"305.6877","FILE":"3359665","BSTAR":"-0.00004262900000","EPHEMERIS_TYPE":"0","PERIAPSIS":"546.064","MEAN_ELEMENT_THEORY":"SGP4","ELEMENT_SET_NO":"999","TLE_LINE2":"2 46336  53.0553  53.0898 0001669  54.4267 305.6877 15.06398008 85120","OBJECT_TYPE":"PAYLOAD","OBJECT_NAME":"STARLINK-1738","GP_ID":"198766400"},{"ELEMENT_SET_NO":"999","PERIAPSIS":"545.828","MEAN_ELEMENT_THEORY":"SGP4","OBJECT_TYPE":"PAYLOAD","TLE_LINE2":"2 46337  53.0553  53.0042 0002033  50.6362 309.4807 15.06392559 85133","GP_ID":"198766651","OBJECT_NAME":"STARLINK-1750","ECCENTRICITY":"0.00020330","COUNTRY_CODE":"US","REF_FRAME":"TEME","APOAPSIS":"548.644","NORAD_CAT_ID":"46337","BSTAR":"0.00021528000000","FILE":"3359665","CENTER_NAME":"EARTH","MEAN_ANOMALY":"309.4807","EPHEMERIS_TYPE":"0","REV_AT_EPOCH":"8513","EPOCH":"2022-03-14T15:42:54.136800","PERIOD":"95.593","SITE":"AFETR","OBJECT_ID":"2020-062N","MEAN_MOTION_DDOT":"0.0000000000000","RA_OF_ASC_NODE":"53.0042","TIME_SYSTEM":"UTC","MEAN_MOTION_DOT":"0.00002926","RCS_SIZE":"LARGE","MEAN_MOTION":"15.06392559","SEMIMAJOR_AXIS":"6925.371","DECAY_DATE":null,"TLE_LINE1":"1 46337U 20062N   22073.65479325  .00002926  00000-0  21528-3 0  9998","ARG_OF_PERICENTER":"50.6362","CLASSIFICATION_TYPE":"U","LAUNCH_DATE":"2020-09-03","INCLINATION":"53.0553"},{"EPOCH":"2022-03-14T12:07:56.051040","REV_AT_EPOCH":"8482","SITE":"AFETR","MEAN_MOTION_DDOT":"0.0000000000000","OBJECT_ID":"2020-062P","RA_OF_ASC_NODE":"73.6774","TIME_SYSTEM":"UTC","PERIOD":"95.592","MEAN_MOTION":"15.06398084","RCS_SIZE":"LARGE","MEAN_MOTION_DOT":"0.00008456","LAUNCH_DATE":"2020-09-03","CLASSIFICATION_TYPE":"U","INCLINATION":"53.0542","SEMIMAJOR_AXIS":"6925.354","DECAY_DATE":null,"TLE_LINE1":"1 46338U 20062P   22073.50550985  .00008456  00000-0  58590-3 0  9998","ARG_OF_PERICENTER":"51.3262","ELEMENT_SET_NO":"999","PERIAPSIS":"545.981","MEAN_ELEMENT_THEORY":"SGP4","GP_ID":"198733185","OBJECT_NAME":"STARLINK-1752","OBJECT_TYPE":"PAYLOAD","TLE_LINE2":"2 46338  53.0542  73.6774 0001788  51.3262 308.7886 15.06398084 84828","APOAPSIS":"548.458","NORAD_CAT_ID":"46338","COUNTRY_CODE":"US","ECCENTRICITY":"0.00017880","REF_FRAME":"TEME","EPHEMERIS_TYPE":"0","BSTAR":"0.00058590000000","FILE":"3359259","CENTER_NAME":"EARTH","MEAN_ANOMALY":"308.7886"},{"APOAPSIS":"548.503","NORAD_CAT_ID":"46340","REF_FRAME":"TEME","COUNTRY_CODE":"US","ECCENTRICITY":"0.00018580","EPHEMERIS_TYPE":"0","MEAN_ANOMALY":"313.4188","CENTER_NAME":"EARTH","BSTAR":"0.00012778000000","FILE":"3359259","PERIAPSIS":"545.929","MEAN_ELEMENT_THEORY":"SGP4","ELEMENT_SET_NO":"999","OBJECT_NAME":"STARLINK-1759","GP_ID":"198733937","TLE_LINE2":"2 46340  53.0554  74.0929 0001858  46.6956 313.4188 15.06399186 84817","OBJECT_TYPE":"PAYLOAD","MEAN_MOTION":"15.06399186","RCS_SIZE":"LARGE","MEAN_MOTION_DOT":"0.00001622","CLASSIFICATION_TYPE":"U","LAUNCH_DATE":"2020-09-03","INCLINATION":"53.0554","DECAY_DATE":null,"TLE_LINE1":"1 46340U 20062R   22073.41241594  .00001622  00000-0  12778-3 0  9990","ARG_OF_PERICENTER":"46.6956","SEMIMAJOR_AXIS":"6925.351","EPOCH":"2022-03-14T09:53:52.737216","REV_AT_EPOCH":"8481","RA_OF_ASC_NODE":"74.0929","TIME_SYSTEM":"UTC","OBJECT_ID":"2020-062R","SITE":"AFETR","MEAN_MOTION_DDOT":"0.0000000000000","PERIOD":"95.592"},{"CENTER_NAME":"EARTH","MEAN_ANOMALY":"305.8764","BSTAR":"0.00005275700000","FILE":"3358929","EPHEMERIS_TYPE":"0","REF_FRAME":"TEME","COUNTRY_CODE":"US","ECCENTRICITY":"0.00016510","APOAPSIS":"548.359","NORAD_CAT_ID":"46341","TLE_LINE2":"2 46341  53.0551  54.0665 0001651  54.2378 305.8764 15.06399475 85282","OBJECT_TYPE":"PAYLOAD","OBJECT_NAME":"STARLINK-1760","GP_ID":"198704120","MEAN_ELEMENT_THEORY":"SGP4","PERIAPSIS":"546.072","ELEMENT_SET_NO":"999","TLE_LINE1":"1 46341U 20062S   22073.41888900  .00000504  00000-0  52757-4 0  9999","DECAY_DATE":null,"ARG_OF_PERICENTER":"54.2378","SEMIMAJOR_AXIS":"6925.350","LAUNCH_DATE":"2020-09-03","CLASSIFICATION_TYPE":"U","INCLINATION":"53.0551","MEAN_MOTION_DOT":"0.00000504","RCS_SIZE":"LARGE","MEAN_MOTION":"15.06399475","PERIOD":"95.592","RA_OF_ASC_NODE":"54.0665","TIME_SYSTEM":"UTC","SITE":"AFETR","MEAN_MOTION_DDOT":"0.0000000000000","OBJECT_ID":"2020-062S","REV_AT_EPOCH":"8528","EPOCH":"2022-03-14T10:03:12.009600"},{"NORAD_CAT_ID":"46342","APOAPSIS":"548.397","ECCENTRICITY":"0.00017250","COUNTRY_CODE":"US","REF_FRAME":"TEME","EPHEMERIS_TYPE":"0","FILE":"3359665","BSTAR":"0.00002936400000","MEAN_ANOMALY":"307.1485","CENTER_NAME":"EARTH","ELEMENT_SET_NO":"999","MEAN_ELEMENT_THEORY":"SGP4","PERIAPSIS":"546.008","GP_ID":"198768405","OBJECT_NAME":"STARLINK-1762","OBJECT_TYPE":"PAYLOAD","TLE_LINE2":"2 46342  53.0531  72.6623 0001725  52.9662 307.1485 15.06403489 84863","MEAN_MOTION":"15.06403489","MEAN_MOTION_DOT":"0.00000156","RCS_SIZE":"LARGE","INCLINATION":"53.0531","LAUNCH_DATE":"2020-09-03","CLASSIFICATION_TYPE":"U","SEMIMAJOR_AXIS":"6925.338","ARG_OF_PERICENTER":"52.9662","TLE_LINE1":"1 46342U 20062T   22073.73034660  .00000156  00000-0  29364-4 0  9992","DECAY_DATE":null,"REV_AT_EPOCH":"8486","EPOCH":"2022-03-14T17:31:41.946240","SITE":"AFETR","MEAN_MOTION_DDOT":"0.0000000000000","OBJECT_ID":"2020-062T","TIME_SYSTEM":"UTC","RA_OF_ASC_NODE":"72.6623","PERIOD":"95.592"},{"APOAPSIS":"548.586","NORAD_CAT_ID":"46343","COUNTRY_CODE":"US","ECCENTRICITY":"0.00019360","REF_FRAME":"TEME","EPHEMERIS_TYPE":"0","BSTAR":"0.00029157000000","FILE":"3359665","MEAN_ANOMALY":"295.4809","CENTER_NAME":"EARTH","ELEMENT_SET_NO":"999","MEAN_ELEMENT_THEORY":"SGP4","PERIAPSIS":"545.905","GP_ID":"198768656","OBJECT_NAME":"STARLINK-1764","OBJECT_TYPE":"PAYLOAD","TLE_LINE2":"2 46343  53.0547  53.0038 0001936  64.6380 295.4809 15.06389557 85134","MEAN_MOTION":"15.06389557","MEAN_MOTION_DOT":"0.00004063","RCS_SIZE":"LARGE","LAUNCH_DATE":"2020-09-03","CLASSIFICATION_TYPE":"U","INCLINATION":"53.0547","SEMIMAJOR_AXIS":"6925.381","TLE_LINE1":"1 46343U 20062U   22073.65848109  .00004063  00000-0  29157-3 0  9995","DECAY_DATE":null,"ARG_OF_PERICENTER":"64.6380","EPOCH":"2022-03-14T15:48:12.766176","REV_AT_EPOCH":"8513","MEAN_MOTION_DDOT":"0.0000000000000","SITE":"AFETR","OBJECT_ID":"2020-062U","RA_OF_ASC_NODE":"53.0038","TIME_SYSTEM":"UTC","PERIOD":"95.593"},{"MEAN_MOTION":"15.06397746","RCS_SIZE":"LARGE","MEAN_MOTION_DOT":"-0.00001863","INCLINATION":"53.0576","LAUNCH_DATE":"2020-09-03","CLASSIFICATION_TYPE":"U","SEMIMAJOR_AXIS":"6925.355","ARG_OF_PERICENTER":"54.2659","TLE_LINE1":"1 46344U 20062V   22073.67691043 -.00001863  00000-0 -10622-3 0  9995","DECAY_DATE":null,"EPOCH":"2022-03-14T16:14:45.061152","REV_AT_EPOCH":"8513","OBJECT_ID":"2020-062V","SITE":"AFETR","MEAN_MOTION_DDOT":"0.0000000000000","TIME_SYSTEM":"UTC","RA_OF_ASC_NODE":"52.9078","PERIOD":"95.592","NORAD_CAT_ID":"46344","APOAPSIS":"548.576","COUNTRY_CODE":"US","ECCENTRICITY":"0.00019570","REF_FRAME":"TEME","EPHEMERIS_TYPE":"0","FILE":"3359665","BSTAR":"-0.00010622000000","CENTER_NAME":"EARTH","MEAN_ANOMALY":"305.8512","ELEMENT_SET_NO":"999","PERIAPSIS":"545.865","MEAN_ELEMENT_THEORY":"SGP4","GP_ID":"198767904","OBJECT_NAME":"STARLINK-1765","OBJECT_TYPE":"PAYLOAD","TLE_LINE2":"2 46344  53.0576  52.9078 0001957  54.2659 305.8512 15.06397746 85132"},{"EPHEMERIS_TYPE":"0","BSTAR":"0.00035523000000","FILE":"3358937","MEAN_ANOMALY":"304.3354","CENTER_NAME":"EARTH","APOAPSIS":"548.452","NORAD_CAT_ID":"46345","ECCENTRICITY":"0.00018550","COUNTRY_CODE":"US","REF_FRAME":"TEME","GP_ID":"198704130","OBJECT_NAME":"STARLINK-1767","OBJECT_TYPE":"PAYLOAD","TLE_LINE2":"2 46345  53.0536  73.7868 0001855  55.7811 304.3354 15.06415023 85003","ELEMENT_SET_NO":"999","MEAN_ELEMENT_THEORY":"SGP4","PERIAPSIS":"545.883","LAUNCH_DATE":"2020-09-03","CLASSIFICATION_TYPE":"U","INCLINATION":"53.0536","SEMIMAJOR_AXIS":"6925.303","DECAY_DATE":null,"TLE_LINE1":"1 46345U 20062W   22073.47970274  .00005016  00000-0  35523-3 0  9999","ARG_OF_PERICENTER":"55.7811","MEAN_MOTION":"15.06415023","RCS_SIZE":"LARGE","MEAN_MOTION_DOT":"0.00005016","OBJECT_ID":"2020-062W","SITE":"AFETR","MEAN_MOTION_DDOT":"0.0000000000000","RA_OF_ASC_NODE":"73.7868","TIME_SYSTEM":"UTC","PERIOD":"95.591","EPOCH":"2022-03-14T11:30:46.316736","REV_AT_EPOCH":"8500"},{"TLE_LINE2":"2 46346  53.0537 294.0098 0002701  29.3269 330.7883 15.34268275 86831","OBJECT_TYPE":"PAYLOAD","OBJECT_NAME":"STARLINK-1546","GP_ID":"198768905","MEAN_ELEMENT_THEORY":"SGP4","PERIAPSIS":"461.249","ELEMENT_SET_NO":"999","CENTER_NAME":"EARTH","MEAN_ANOMALY":"330.7883","FILE":"3359665","BSTAR":"0.00017104000000","EPHEMERIS_TYPE":"0","REF_FRAME":"TEME","ECCENTRICITY":"0.00027010","COUNTRY_CODE":"US","NORAD_CAT_ID":"46346","APOAPSIS":"464.945","PERIOD":"93.856","TIME_SYSTEM":"UTC","RA_OF_ASC_NODE":"294.0098","SITE":"AFETR","MEAN_MOTION_DDOT":"0.0000000000000","OBJECT_ID":"2020-062X","EPOCH":"2022-03-14T21:22:42.872736","REV_AT_EPOCH":"8683","ARG_OF_PERICENTER":"29.3269","DECAY_DATE":null,"TLE_LINE1":"1 46346U 20062X   22073.89077399  .00005383  00000-0  17104-3 0  9994","SEMIMAJOR_AXIS":"6841.232","INCLINATION":"53.0537","LAUNCH_DATE":"2020-09-03","CLASSIFICATION_TYPE":"U","RCS_SIZE":"LARGE","MEAN_MOTION_DOT":"0.00005383","MEAN_MOTION":"15.34268275"}];
